[
  {
    "OBJECT_NAME": "STARLINK-30980",
    "OBJECT_ID": "23186D",
    "EPOCH": "2025-11-11T02:55:30.883872",
    "MEAN_MOTION": 15.02544516,
    "ECCENTRICITY": 0.0001393,
    "INCLINATION": 43.0049,
    "RA_OF_ASC_NODE": 351.9011,
    "ARG_OF_PERICENTER": 271.0786,
    "MEAN_ANOMALY": 88.9897,
    "EPHEMERIS_TYPE": 0,
    "CLASSIFICATION_TYPE": "U",
    "NORAD_CAT_ID": 58476,
    "ELEMENT_SET_NO": 999,
    "REV_AT_EPOCH": 10801,
    "BSTAR": 0.00012312,
    "MEAN_MOTION_DOT": 1.46e-05,
    "MEAN_MOTION_DDOT": 0.0,
    "TLE_LINE1": "1 58476U 23186D   25315.12188523  .00001460  00000+0  12312-3 0  9998",
    "TLE_LINE2": "2 58476  43.0049 351.9011 0001393 271.0786  88.9897 15.02544516108011",
    "COMMENT": "Grouped by shell and plane from TLE"
  },
  {
    "OBJECT_NAME": "STARLINK-30990",
    "OBJECT_ID": "23186F",
    "EPOCH": "2025-11-11T02:50:43.224576",
    "MEAN_MOTION": 15.02547207,
    "ECCENTRICITY": 0.0001326,
    "INCLINATION": 43.0085,
    "RA_OF_ASC_NODE": 351.8774,
    "ARG_OF_PERICENTER": 265.2902,
    "MEAN_ANOMALY": 94.7789,
    "EPHEMERIS_TYPE": 0,
    "CLASSIFICATION_TYPE": "U",
    "NORAD_CAT_ID": 58478,
    "ELEMENT_SET_NO": 999,
    "REV_AT_EPOCH": 10805,
    "BSTAR": 0.00014083000000000002,
    "MEAN_MOTION_DOT": 1.7e-05,
    "MEAN_MOTION_DDOT": 0.0,
    "TLE_LINE1": "1 58478U 23186F   25315.11855584  .00001700  00000+0  14083-3 0  9991",
    "TLE_LINE2": "2 58478  43.0085 351.8774 0001326 265.2902  94.7789 15.02547207108058",
    "COMMENT": "Grouped by shell and plane from TLE"
  },
  {
    "OBJECT_NAME": "STARLINK-30984",
    "OBJECT_ID": "23186H",
    "EPOCH": "2025-11-11T03:19:17.634720",
    "MEAN_MOTION": 15.02555563,
    "ECCENTRICITY": 0.0001552,
    "INCLINATION": 43.0036,
    "RA_OF_ASC_NODE": 351.1608,
    "ARG_OF_PERICENTER": 281.0835,
    "MEAN_ANOMALY": 78.9833,
    "EPHEMERIS_TYPE": 0,
    "CLASSIFICATION_TYPE": "U",
    "NORAD_CAT_ID": 58480,
    "ELEMENT_SET_NO": 999,
    "REV_AT_EPOCH": 10802,
    "BSTAR": 0.0002945,
    "MEAN_MOTION_DOT": 3.779e-05,
    "MEAN_MOTION_DDOT": 0.0,
    "TLE_LINE1": "1 58480U 23186H   25315.13839855  .00003779  00000+0  29450-3 0  9991",
    "TLE_LINE2": "2 58480  43.0036 351.1608 0001552 281.0835  78.9833 15.02555563108023",
    "COMMENT": "Grouped by shell and plane from TLE"
  },
  {
    "OBJECT_NAME": "STARLINK-30997",
    "OBJECT_ID": "23186K",
    "EPOCH": "2025-11-11T03:43:17.566752",
    "MEAN_MOTION": 15.02557393,
    "ECCENTRICITY": 0.0001494,
    "INCLINATION": 43.0025,
    "RA_OF_ASC_NODE": 351.2612,
    "ARG_OF_PERICENTER": 277.8662,
    "MEAN_ANOMALY": 82.2011,
    "EPHEMERIS_TYPE": 0,
    "CLASSIFICATION_TYPE": "U",
    "NORAD_CAT_ID": 58482,
    "ELEMENT_SET_NO": 999,
    "REV_AT_EPOCH": 10802,
    "BSTAR": 0.00053703,
    "MEAN_MOTION_DOT": 7.062e-05,
    "MEAN_MOTION_DDOT": 0.0,
    "TLE_LINE1": "1 58482U 23186K   25315.15506443  .00007062  00000+0  53703-3 0  9996",
    "TLE_LINE2": "2 58482  43.0025 351.2612 0001494 277.8662  82.2011 15.02557393108024",
    "COMMENT": "Grouped by shell and plane from TLE"
  },
  {
    "OBJECT_NAME": "STARLINK-30991",
    "OBJECT_ID": "23186M",
    "EPOCH": "2025-11-11T03:14:31.749216",
    "MEAN_MOTION": 15.02539877,
    "ECCENTRICITY": 0.0001206,
    "INCLINATION": 43.0045,
    "RA_OF_ASC_NODE": 351.1361,
    "ARG_OF_PERICENTER": 276.6744,
    "MEAN_ANOMALY": 83.3962,
    "EPHEMERIS_TYPE": 0,
    "CLASSIFICATION_TYPE": "U",
    "NORAD_CAT_ID": 58484,
    "ELEMENT_SET_NO": 999,
    "REV_AT_EPOCH": 10801,
    "BSTAR": 9.9672e-05,
    "MEAN_MOTION_DOT": 1.143e-05,
    "MEAN_MOTION_DDOT": 0.0,
    "TLE_LINE1": "1 58484U 23186M   25315.13508969  .00001143  00000+0  99672-4 0  9991",
    "TLE_LINE2": "2 58484  43.0045 351.1361 0001206 276.6744  83.3962 15.02539877108010",
    "COMMENT": "Grouped by shell and plane from TLE"
  },
  {
    "OBJECT_NAME": "STARLINK-30979",
    "OBJECT_ID": "23186N",
    "EPOCH": "2025-11-11T02:41:08.287008",
    "MEAN_MOTION": 15.02557901,
    "ECCENTRICITY": 0.000124,
    "INCLINATION": 43.005,
    "RA_OF_ASC_NODE": 351.827,
    "ARG_OF_PERICENTER": 269.3069,
    "MEAN_ANOMALY": 90.7631,
    "EPHEMERIS_TYPE": 0,
    "CLASSIFICATION_TYPE": "U",
    "NORAD_CAT_ID": 58485,
    "ELEMENT_SET_NO": 999,
    "REV_AT_EPOCH": 10800,
    "BSTAR": 0.0,
    "MEAN_MOTION_DOT": -4.216e-05,
    "MEAN_MOTION_DDOT": 0.0,
    "TLE_LINE1": "1 58485U 23186N   25315.11190147 -.00004216  00000+0 -29703-3 0  9998",
    "TLE_LINE2": "2 58485  43.0050 351.8270 0001240 269.3069  90.7631 15.02557901108002",
    "COMMENT": "Grouped by shell and plane from TLE"
  },
  {
    "OBJECT_NAME": "STARLINK-31005",
    "OBJECT_ID": "23186P",
    "EPOCH": "2025-11-11T02:36:20.209536",
    "MEAN_MOTION": 15.02544609,
    "ECCENTRICITY": 0.0001339,
    "INCLINATION": 43.0068,
    "RA_OF_ASC_NODE": 351.8024,
    "ARG_OF_PERICENTER": 265.7961,
    "MEAN_ANOMALY": 94.2729,
    "EPHEMERIS_TYPE": 0,
    "CLASSIFICATION_TYPE": "U",
    "NORAD_CAT_ID": 58486,
    "ELEMENT_SET_NO": 999,
    "REV_AT_EPOCH": 10800,
    "BSTAR": 0.00013788,
    "MEAN_MOTION_DOT": 1.66e-05,
    "MEAN_MOTION_DDOT": 0.0,
    "TLE_LINE1": "1 58486U 23186P   25315.10856724  .00001660  00000+0  13788-3 0  9992",
    "TLE_LINE2": "2 58486  43.0068 351.8024 0001339 265.7961  94.2729 15.02544609108007",
    "COMMENT": "Grouped by shell and plane from TLE"
  },
  {
    "OBJECT_NAME": "STARLINK-30987",
    "OBJECT_ID": "23186Q",
    "EPOCH": "2025-11-11T04:07:16.833504",
    "MEAN_MOTION": 15.02538173,
    "ECCENTRICITY": 0.0001265,
    "INCLINATION": 43.0047,
    "RA_OF_ASC_NODE": 351.414,
    "ARG_OF_PERICENTER": 268.3135,
    "MEAN_ANOMALY": 91.7562,
    "EPHEMERIS_TYPE": 0,
    "CLASSIFICATION_TYPE": "U",
    "NORAD_CAT_ID": 58487,
    "ELEMENT_SET_NO": 999,
    "REV_AT_EPOCH": 10801,
    "BSTAR": 0.0,
    "MEAN_MOTION_DOT": -3.29e-06,
    "MEAN_MOTION_DDOT": 0.0,
    "TLE_LINE1": "1 58487U 23186Q   25315.17172261 -.00000329  00000+0 -92817-5 0  9992",
    "TLE_LINE2": "2 58487  43.0047 351.4140 0001265 268.3135  91.7562 15.02538173108017",
    "COMMENT": "Grouped by shell and plane from TLE"
  },
  {
    "OBJECT_NAME": "STARLINK-31000",
    "OBJECT_ID": "23186R",
    "EPOCH": "2025-11-11T04:02:28.371552",
    "MEAN_MOTION": 15.02535299,
    "ECCENTRICITY": 0.0001201,
    "INCLINATION": 43.0026,
    "RA_OF_ASC_NODE": 351.3892,
    "ARG_OF_PERICENTER": 277.978,
    "MEAN_ANOMALY": 82.0926,
    "EPHEMERIS_TYPE": 0,
    "CLASSIFICATION_TYPE": "U",
    "NORAD_CAT_ID": 58488,
    "ELEMENT_SET_NO": 999,
    "REV_AT_EPOCH": 10801,
    "BSTAR": 0.0,
    "MEAN_MOTION_DOT": -4.843e-05,
    "MEAN_MOTION_DDOT": 0.0,
    "TLE_LINE1": "1 58488U 23186R   25315.16838393 -.00004843  00000+0 -34372-3 0  9992",
    "TLE_LINE2": "2 58488  43.0026 351.3892 0001201 277.9780  82.0926 15.02535299108013",
    "COMMENT": "Grouped by shell and plane from TLE"
  },
  {
    "OBJECT_NAME": "STARLINK-30993",
    "OBJECT_ID": "23186S",
    "EPOCH": "2025-11-11T02:21:58.543200",
    "MEAN_MOTION": 15.02538194,
    "ECCENTRICITY": 0.000159,
    "INCLINATION": 43.0039,
    "RA_OF_ASC_NODE": 351.7245,
    "ARG_OF_PERICENTER": 270.2518,
    "MEAN_ANOMALY": 89.8142,
    "EPHEMERIS_TYPE": 0,
    "CLASSIFICATION_TYPE": "U",
    "NORAD_CAT_ID": 58489,
    "ELEMENT_SET_NO": 999,
    "REV_AT_EPOCH": 10800,
    "BSTAR": 0.00039955000000000004,
    "MEAN_MOTION_DOT": 5.198e-05,
    "MEAN_MOTION_DDOT": 0.0,
    "TLE_LINE1": "1 58489U 23186S   25315.09859425  .00005198  00000+0  39955-3 0  9998",
    "TLE_LINE2": "2 58489  43.0039 351.7245 0001590 270.2518  89.8142 15.02538194108001",
    "COMMENT": "Grouped by shell and plane from TLE"
  },
  {
    "OBJECT_NAME": "STARLINK-30978",
    "OBJECT_ID": "23186T",
    "EPOCH": "2025-11-11T03:52:54.278112",
    "MEAN_MOTION": 15.02520984,
    "ECCENTRICITY": 0.0002371,
    "INCLINATION": 43.0083,
    "RA_OF_ASC_NODE": 351.3423,
    "ARG_OF_PERICENTER": 271.034,
    "MEAN_ANOMALY": 89.0231,
    "EPHEMERIS_TYPE": 0,
    "CLASSIFICATION_TYPE": "U",
    "NORAD_CAT_ID": 58490,
    "ELEMENT_SET_NO": 999,
    "REV_AT_EPOCH": 10801,
    "BSTAR": 0.0,
    "MEAN_MOTION_DOT": -4.296e-05,
    "MEAN_MOTION_DDOT": 0.0,
    "TLE_LINE1": "1 58490U 23186T   25315.16173933 -.00004296  00000+0 -30320-3 0  9998",
    "TLE_LINE2": "2 58490  43.0083 351.3423 0002371 271.0340  89.0231 15.02520984108016",
    "COMMENT": "Grouped by shell and plane from TLE"
  },
  {
    "OBJECT_NAME": "STARLINK-30986",
    "OBJECT_ID": "23186V",
    "EPOCH": "2025-11-11T03:38:30.916608",
    "MEAN_MOTION": 15.02491616,
    "ECCENTRICITY": 3.99e-05,
    "INCLINATION": 43.0054,
    "RA_OF_ASC_NODE": 351.2642,
    "ARG_OF_PERICENTER": 275.1907,
    "MEAN_ANOMALY": 84.889,
    "EPHEMERIS_TYPE": 0,
    "CLASSIFICATION_TYPE": "U",
    "NORAD_CAT_ID": 58492,
    "ELEMENT_SET_NO": 999,
    "REV_AT_EPOCH": 10801,
    "BSTAR": 0.0009394200000000001,
    "MEAN_MOTION_DOT": 0.00012494,
    "MEAN_MOTION_DDOT": 0.0,
    "TLE_LINE1": "1 58492U 23186V   25315.15174672  .00012494  00000+0  93942-3 0  9996",
    "TLE_LINE2": "2 58492  43.0054 351.2642 0000399 275.1907  84.8890 15.02491616108013",
    "COMMENT": "Grouped by shell and plane from TLE"
  },
  {
    "OBJECT_NAME": "STARLINK-30985",
    "OBJECT_ID": "23186W",
    "EPOCH": "2025-11-11T03:33:42.218784",
    "MEAN_MOTION": 15.02543286,
    "ECCENTRICITY": 0.0001066,
    "INCLINATION": 43.0058,
    "RA_OF_ASC_NODE": 351.2392,
    "ARG_OF_PERICENTER": 271.8557,
    "MEAN_ANOMALY": 88.2164,
    "EPHEMERIS_TYPE": 0,
    "CLASSIFICATION_TYPE": "U",
    "NORAD_CAT_ID": 58493,
    "ELEMENT_SET_NO": 999,
    "REV_AT_EPOCH": 10801,
    "BSTAR": 0.00016551,
    "MEAN_MOTION_DOT": 2.033e-05,
    "MEAN_MOTION_DDOT": 0.0,
    "TLE_LINE1": "1 58493U 23186W   25315.14840531  .00002033  00000+0  16551-3 0  9999",
    "TLE_LINE2": "2 58493  43.0058 351.2392 0001066 271.8557  88.2164 15.02543286108019",
    "COMMENT": "Grouped by shell and plane from TLE"
  }
]